STARLINK-6065           
1 56812U 23078AX  23167.16667824 -.00947939  00000+0 -78503-2 0  9998
2 56812  70.0019   8.6175 0003690 272.5243  81.3343 15.72675862  2802
STARLINK-6056           
1 56813U 23078AY  23167.16667824 -.00943153  00000+0 -77838-2 0  9993
2 56813  70.0016   8.6120 0003687 273.0029  84.6691 15.72742613  2805
STARLINK-6059           
1 56814U 23078AZ  23167.16667824 -.00935300  00000+0 -77196-2 0  9996
2 56814  70.0017   8.6140 0003724 271.5818  85.0035 15.72717836  2806
STARLINK-6057           
1 56815U 23078BA  23167.16667824 -.00947560  00000+0 -78172-2 0  9993
2 56815  70.0013   8.6103 0003506 271.9403  86.8182 15.72766449  2800
STARLINK-6067           
1 56816U 23078BB  23167.16667824 -.00949698  00000+0 -78395-2 0  9995
2 56816  70.0023   8.6126 0003598 272.4730  85.7407 15.72757505  2808
STARLINK-5982           
1 56817U 23078BC  23167.16667824 -.00943648  00000+0 -78190-2 0  9998
2 56817  70.0011   8.6170 0003666 272.5504  80.2208 15.72651209  2804
STARLINK-6028           
1 56818U 23078BD  23167.16667824 -.00955851  00000+0 -78880-2 0  9994
2 56818  70.0012   8.6103 0003583 273.3017  85.9972 15.72782073  2802
STARLINK-30119          
1 56823U 23079A   23167.25001157 -.01629147  00000+0 -15461-1 0  9994
2 56823  43.0008 143.4534 0001498 279.1472  34.2719 15.69011176  2329
STARLINK-30120          
1 56824U 23079B   23167.25001157 -.01628589  00000+0 -15448-1 0  9999
2 56824  43.0007 143.4528 0001292 273.7510  40.0045 15.69024188  2321
STARLINK-30084          
1 56825U 23079C   23167.25001157 -.01632020  00000+0 -15475-1 0  9995
2 56825  43.0009 143.4523 0001081 274.2008  39.8425 15.69041415  2323
STARLINK-30114          
1 56826U 23079D   23167.25001157  .00287861  00000+0  18187-2 0  9996
2 56826  43.0030 143.4103 0001642 214.9257 115.8187 15.74977391  2329
STARLINK-30151          
1 56827U 23079E   23167.25001157 -.01627421  00000+0 -15405-1 0  9999
2 56827  43.0007 143.4508 0001677 276.0967  38.5456 15.69067462  2321
STARLINK-30152          
1 56828U 23079F   23167.25001157 -.01630882  00000+0 -15431-1 0  9994
2 56828  43.0014 143.4510 0001594 281.4995  33.4338 15.69085400  2327
STARLINK-30139          
1 56829U 23079G   23167.25001157  .00407157  70226-4  12620-2 0  9999
2 56829  43.0041 142.5744 0003057 265.1258  39.6364 15.90858512  2338
STARLINK-30134          
1 56830U 23079H   23167.07844361  .00295777  00000+0  98222-3 0  9997
2 56830  43.0046 143.7396 0003452 282.7271  77.3218 15.88744402  2639
STARLINK-30128          
1 56832U 23079K   23166.95902619  .00135502  00000+0  49511-3 0  9992
2 56832  43.0042 144.5708 0002803 233.9183 126.1431 15.87235161  2289
STARLINK-30131          
1 56833U 23079L   23167.25001157 -.00584008  00000+0 -38855-2 0  9993
2 56833  43.0048 143.1458 0001499 269.5440 167.9846 15.76080125  2328
STARLINK-30069          
1 56834U 23079M   23167.25001157 -.01633662  00000+0 -15427-1 0  9995
2 56834  43.0009 143.4475 0001022 271.4368  44.7375 15.69143485  2321
STARLINK-30144          
1 56835U 23079N   23167.25001157 -.01631191  00000+0 -15389-1 0  9998
2 56835  43.0012 143.4472 0001262 269.7286  46.7154 15.69159170  2323
STARLINK-30142          
1 56836U 23079P   23167.25001157 -.01635677  00000+0 -15424-1 0  9992
2 56836  43.0012 143.4471 0001626 298.0615  18.6964 15.69175180  2324
STARLINK-30133          
1 56837U 23079Q   23167.25001157 -.01637697  00000+0 -15429-1 0  9992
2 56837  43.0013 143.4446 0000947 273.8074  43.5034 15.69207756  2323
STARLINK-30123          
1 56838U 23079R   23167.25001157  .00301586  00000+0  19028-2 0  9995
2 56838  43.0040 143.4076 0000793 259.3822  73.2214 15.74968849  2325
STARLINK-30076          
1 56839U 23079S   23167.25001157 -.01639666  00000+0 -15443-1 0  9998
2 56839  43.0015 143.4442 0000561 315.8907   1.7176 15.69222234  2328
STARLINK-30073          
1 56840U 23079T   23167.25001157 -.00594646  00000+0 -36679-2 0  9992
2 56840  43.0051 143.3070 0002092 272.7854 100.2784 15.77794700  2320
STARLINK-30078          
1 56841U 23079U   23167.25001157 -.01634364  00000+0 -15361-1 0  9990
2 56841  43.0019 143.4432 0001821 272.3556  45.8541 15.69249186  2321
STARLINK-30135          
1 56842U 23079V   23166.83334491 -.00576289  00000+0 -39489-2 0  9992
2 56842  43.0047 145.6982 0002086 240.5402 340.1570 15.75388537  1309
STARLINK-30137          
1 56843U 23079W   23166.83334491 -.00578278  00000+0 -39622-2 0  9992
2 56843  43.0046 145.6973 0002355 248.3914 332.5900 15.75393623  1306
STARLINK-30136          
1 56844U 23079X   23166.83334491 -.00578464  00000+0 -39617-2 0  9994
2 56844  43.0043 145.6963 0003016 251.0981 330.1153 15.75398538  1307
DRAGON CRS-28           
1 56845U 23080A   23166.50664007  .00011208  00000+0  19859-3 0  9993
2 56845  51.6398 336.8548 0005190  83.6492 276.5089 15.50773518401538
SZ-15 MODULE            
1 56873U 22162C   23167.02306564  .00025944  00000+0  32834-3 0  9993
2 56873  41.4837 163.0952 0005485  31.5062 328.6104 15.58890248  1817
LONGJIANG 3             
1 56874U 23082A   23167.10575418  .00012096  00000+0  50774-3 0  9998
2 56874  49.1317 231.0391 0006776 294.7672  65.2565 15.23752298  1069
